SCD 1                   
1 22490U 93009B   26196.95283149  .00000293  00000+0  29432-4 0  9990
2 22490  24.9705  29.9632 0042081  82.5333  35.7433 14.46128812765286
TECHSAT 1B (GO-32)      
1 25397U 98043D   26196.93420811  .00000003  00000+0  21470-4 0  9992
2 25397  99.0086 190.4201 0002197 113.5065 246.6344 14.24433441455426
SCD 2                   
1 25504U 98060A   26196.26197317  .00000274  00000+0  25831-4 0  9994
2 25504  24.9945 259.0250 0016971  60.2756 348.6331 14.45534804464396
DLR-TUBSAT              
1 25757U 99029B   26196.95171519 -.00000002  00000+0  11369-4 0  9993
2 25757  98.6711 193.4043 0012977 262.1951  97.7770 14.52433336437427
TERRA                   
1 25994U 99068A   26197.19671882  .00000172  00000+0  43981-4 0  9996
2 25994  97.9441 245.5905 0003454 120.6874 331.5676 14.61124131413844
MAROC-TUBSAT            
1 27004U 01056D   26197.07387197 -.00000041  00000+0  62263-5 0  9991
2 27004  99.8099  14.4799 0020590  69.9147  46.6685 13.70263588230143
AQUA                    
1 27424U 02022A   26195.50499725  .00000358  00000+0  80864-4 0  9994
2 27424  98.4295 165.3370 0000927 111.8770   0.7592 14.62196472287266
SHIYAN-1 (SY-1)         
1 28220U 04012A   26197.20880716  .00006930  00000+0  21020-3 0  9993
2 28220  97.8687 277.1771 0004113 269.5722  90.5049 15.34467781215545
AURA                    
1 28376U 04026A   26197.15448590  .00000337  00000+0  78016-4 0  9997
2 28376  98.3431 153.8508 0001336  93.6807 266.4546 14.61368492170445
IRS-P5 (CARTOSAT-1)     
1 28649U 05017A   26197.13556899  .00000733  00000+0  79181-4 0  9995
2 28649  97.5306 218.8869 0001351  51.2659 308.8681 14.91118443148138
SINAH 1                 
1 28893U 05043D   26197.16651806  .00000119  00000+0  32050-4 0  9994
2 28893  98.2895 331.6647 0014464 180.4698 179.6493 14.64175761104767
RESURS-DK 1             
1 29228U 06021A   26197.18580834  .00000854  00000+0  53925-4 0  9998
2 29228  69.9306 264.4811 0007162 269.9586  90.0759 15.13320706106965
ARIRANG-2 (KOMPSAT-2)   
1 29268U 06031A   26197.20157705 -.00000103  00000+0 -10960-4 0  9994
2 29268  97.8305  20.2448 0014181 347.6001 131.9621 14.64675210 65726
LAPAN-TUBSAT            
1 29709U 07001A   26197.14209149 -.00000051  00000+0  72005-6 0  9996
2 29709  98.1345 197.0204 0013539  91.0267 269.2498 14.85975279 55454
HAIYANG-1B              
1 31113U 07010A   26196.95185925  .00000024  00000+0  25067-4 0  9994
2 31113  98.3515 177.6841 0014660 113.6997 246.5726 14.31033433  4752
COSMO-SKYMED 1          
1 31598U 07023A   26197.14102175  .00001407  00000+0  12681-3 0  9996
2 31598  97.8846  29.2419 0001508 102.7736 257.3654 14.97222020 34128
TERRASAR-X              
1 31698U 07026A   26188.47915537  .00000240  00000+0  14624-4 0  9994
2 31698  97.4461 195.8972 0001878  86.9540 273.1909 15.19153986 56300
WORLDVIEW-1 (WV-1)      
1 32060U 07041A   26197.17395443  .00003021  00000+0  12558-3 0  9993
2 32060  97.3907 316.5111 0001623 201.7714 158.3455 15.24564526 47293
YAOGAN-3                
1 32289U 07055A   26197.18937759  .00001138  00000+0  12111-3 0  9996
2 32289  97.8144 226.7808 0001626  78.2133 281.9267 14.90886264 10195
COSMO-SKYMED 2          
1 32376U 07059A   26197.19057567  .00000136  00000+0  23708-4 0  9990
2 32376  97.8894  20.3689 0001461  93.9398 266.1982 14.82150902  6304
RADARSAT-2              
1 32382U 07061A   26197.14569338  .00000076  00000+0  46572-4 0  9996
2 32382  98.5777 203.6648 0001318  84.1117 276.0216 14.29983509970096
CARTOSAT-2A             
1 32783U 08021A   26197.20050450 -.00000246  00000+0 -26351-4 0  9999
2 32783  97.7617 244.9167 0012440  24.0131 336.1659 14.79275666983092
HUANJING 1A (HJ-1A)     
1 33320U 08041A   26197.22692322  .00000283  00000+0  39991-4 0  9994
2 33320  97.6692 181.9456 0020276  46.3451 313.9441 14.84048896962718
HUANJING 1B (HJ-1B)     
1 33321U 08041B   26197.20933804  .00001019  00000+0  12901-3 0  9995
2 33321  97.6530 185.0122 0038016  88.0496 272.5072 14.83368732962711
GEOEYE 1                
1 33331U 08042A   26197.18602272  .00000166  00000+0  40177-4 0  9995
2 33331  98.1327 270.7703 0003876 343.3662  16.7413 14.64649776954398
THEOS                   
1 33396U 08049A   26197.13752494  .00000151  00000+0  90800-4 0  9992
2 33396  98.5559 253.4789 0001080  89.4380 270.6921 14.20137324922070
COSMO-SKYMED 3          
1 33412U 08054A   26197.15858648  .00002388  00000+0  16300-3 0  9993
2 33412  97.8244  56.2081 0015826 163.4629 196.7117 15.07118786961309
YAOGAN-4                
1 33446U 08061A   26196.77081776  .00000451  00000+0  61759-4 0  9993
2 33446  97.9304 130.0710 0013760 343.7681  16.3090 14.83251950949903
GOSAT (IBUKI)           
1 33492U 09002A   26196.91123801  .00000286  00000+0  58851-4 0  9997
2 33492  98.0914 307.6357 0001143  88.4019 271.7317 14.67540117935678
DEIMOS-1                
1 35681U 09041A   26197.21604128  .00000409  00000+0  67548-4 0  9992
2 35681  97.7430 353.1899 0002803  91.6084 268.5446 14.75265230911162
DUBAISAT-1              
1 35682U 09041B   26196.91716609  .00000375  00000+0  63132-4 0  9994
2 35682  98.0086 329.8660 0009889 346.2554  13.8385 14.75167272909338
